{
  "type": "FeatureCollection",
  "features": [
    {
      "type": "Feature",
      "properties": {
        "norad_id": 43783,
        "name": "KAZSTSAT",
        "group": "resource",
        "lat": 20.2993211064534,
        "lon": -141.99493789851792,
        "alt_km": 570.3831022734548,
        "timestamp": "2025-12-26T15:29:39.095993+00:00",
        "meta_object_name": "KAZSTSAT",
        "meta_object_id": "2018-099AB",
        "meta_epoch": "2025-12-26T01:58:17.402304",
        "meta_mean_motion": 14.99373179,
        "meta_eccentricity": 0.00063823,
        "meta_inclination": 97.4511,
        "meta_ra_of_asc_node": 34.6913,
        "meta_arg_of_pericenter": 270.6948,
        "meta_mean_anomaly": 89.3544,
        "meta_ephemeris_type": 0,
        "meta_classification_type": "U",
        "meta_norad_cat_id": 43783,
        "meta_element_set_no": 999,
        "meta_rev_at_epoch": 38536,
        "meta_bstar": 5.8642616e-05,
        "meta_mean_motion_dot": 6.62e-06,
        "meta_mean_motion_ddot": 0,
        "tle_line1": "1 43783U 18099AB  25360.08214586  .00000662  00000+0  58643-4 0  9995",
        "tle_line2": "2 43783  97.4511  34.6913 0006382 270.6948  89.3544 14.99373179385366"
      },
      "geometry": {
        "type": "Point",
        "coordinates": [
          -141.99493789851792,
          20.2993211064534
        ]
      }
    },
    {
      "type": "Feature",
      "properties": {
        "norad_id": 43831,
        "name": "SAUDISAT 5A",
        "group": "resource",
        "lat": 82.63689370970755,
        "lon": -34.182936694461524,
        "alt_km": 476.83404472144593,
        "timestamp": "2025-12-26T15:29:39.096004+00:00",
        "meta_object_name": "SAUDISAT 5A",
        "meta_object_id": "2018-102A",
        "meta_epoch": "2025-12-26T07:13:46.939872",
        "meta_mean_motion": 15.25822339,
        "meta_eccentricity": 0.00109622,
        "meta_inclination": 97.333,
        "meta_ra_of_asc_node": 60.2301,
        "meta_arg_of_pericenter": 33.8768,
        "meta_mean_anomaly": 326.3169,
        "meta_ephemeris_type": 0,
        "meta_classification_type": "U",
        "meta_norad_cat_id": 43831,
        "meta_element_set_no": 999,
        "meta_rev_at_epoch": 38929,
        "meta_bstar": 0.00024475142,
        "meta_mean_motion_dot": 6.198e-05,
        "meta_mean_motion_ddot": 0,
        "tle_line1": "1 43831U 18102A   25360.30123773  .00006198  00000+0  24475-3 0  9991",
        "tle_line2": "2 43831  97.3330  60.2301 0010962  33.8768 326.3169 15.25822339389292"
      },
      "geometry": {
        "type": "Point",
        "coordinates": [
          -34.182936694461524,
          82.63689370970755
        ]
      }
    },
    {
      "type": "Feature",
      "properties": {
        "norad_id": 43833,
        "name": "SAUDISAT 5B",
        "group": "resource",
        "lat": 19.41331511871271,
        "lon": -114.06398735708612,
        "alt_km": 492.2094100973445,
        "timestamp": "2025-12-26T15:29:39.096014+00:00",
        "meta_object_name": "SAUDISAT 5B",
        "meta_object_id": "2018-102C",
        "meta_epoch": "2025-12-26T06:55:37.060032",
        "meta_mean_motion": 15.26167283,
        "meta_eccentricity": 0.0011714,
        "meta_inclination": 97.3425,
        "meta_ra_of_asc_node": 62.9807,
        "meta_arg_of_pericenter": 35.9434,
        "meta_mean_anomaly": 324.259,
        "meta_ephemeris_type": 0,
        "meta_classification_type": "U",
        "meta_norad_cat_id": 43833,
        "meta_element_set_no": 999,
        "meta_rev_at_epoch": 38940,
        "meta_bstar": 0.00023231244,
        "meta_mean_motion_dot": 5.942e-05,
        "meta_mean_motion_ddot": 0,
        "tle_line1": "1 43833U 18102C   25360.28862338  .00005942  00000+0  23231-3 0  9992",
        "tle_line2": "2 43833  97.3425  62.9807 0011714  35.9434 324.2590 15.26167283389407"
      },
      "geometry": {
        "type": "Point",
        "coordinates": [
          -114.06398735708612,
          19.41331511871271
        ]
      }
    },
    {
      "type": "Feature",
      "properties": {
        "norad_id": 44622,
        "name": "GAOFEN-10R",
        "group": "resource",
        "lat": 76.27150969713372,
        "lon": 163.50527301605302,
        "alt_km": 614.0504859799157,
        "timestamp": "2025-12-26T15:29:39.096025+00:00",
        "meta_object_name": "GAOFEN-10R",
        "meta_object_id": "2019-066A",
        "meta_epoch": "2025-12-26T06:56:33.215712",
        "meta_mean_motion": 14.82837481,
        "meta_eccentricity": 0.00069041,
        "meta_inclination": 98.0296,
        "meta_ra_of_asc_node": 307.8498,
        "meta_arg_of_pericenter": 1.7305,
        "meta_mean_anomaly": 358.3931,
        "meta_ephemeris_type": 0,
        "meta_classification_type": "U",
        "meta_norad_cat_id": 44622,
        "meta_element_set_no": 999,
        "meta_rev_at_epoch": 33675,
        "meta_bstar": 0.00022164326,
        "meta_mean_motion_dot": 1.74e-05,
        "meta_mean_motion_ddot": 0,
        "tle_line1": "1 44622U 19066A   25360.28927333  .00001740  00000+0  22164-3 0  9992",
        "tle_line2": "2 44622  98.0296 307.8498 0006904   1.7305 358.3931 14.82837481336750"
      },
      "geometry": {
        "type": "Point",
        "coordinates": [
          163.50527301605302,
          76.27150969713372
        ]
      }
    },
    {
      "type": "Feature",
      "properties": {
        "norad_id": 44804,
        "name": "CARTOSAT-3",
        "group": "resource",
        "lat": -75.16659942561273,
        "lon": 89.68811765318445,
        "alt_km": 519.4978065331788,
        "timestamp": "2025-12-26T15:29:39.096036+00:00",
        "meta_object_name": "CARTOSAT-3",
        "meta_object_id": "2019-081A",
        "meta_epoch": "2025-12-26T06:20:55.831776",
        "meta_mean_motion": 15.19263831,
        "meta_eccentricity": 0.00135471,
        "meta_inclination": 97.456,
        "meta_ra_of_asc_node": 59.6748,
        "meta_arg_of_pericenter": 40.3618,
        "meta_mean_anomaly": 319.862,
        "meta_ephemeris_type": 0,
        "meta_classification_type": "U",
        "meta_norad_cat_id": 44804,
        "meta_element_set_no": 999,
        "meta_rev_at_epoch": 33721,
        "meta_bstar": 0.00015859231,
        "meta_mean_motion_dot": 3.282e-05,
        "meta_mean_motion_ddot": 0,
        "tle_line1": "1 44804U 19081A   25360.26453509  .00003282  00000+0  15859-3 0  9994",
        "tle_line2": "2 44804  97.4560  59.6748 0013547  40.3618 319.8620 15.19263831337218"
      },
      "geometry": {
        "type": "Point",
        "coordinates": [
          89.68811765318445,
          -75.16659942561273
        ]
      }
    },
    {
      "type": "Feature",
      "properties": {
        "norad_id": 44819,
        "name": "GAOFEN-12 01",
        "group": "resource",
        "lat": -77.63991747454743,
        "lon": 147.76581118201204,
        "alt_km": 634.4432164299715,
        "timestamp": "2025-12-26T15:29:39.096047+00:00",
        "meta_object_name": "GAOFEN-12 01",
        "meta_object_id": "2019-082A",
        "meta_epoch": "2025-12-26T07:50:03.584832",
        "meta_mean_motion": 14.80672783,
        "meta_eccentricity": 0.00023067,
        "meta_inclination": 97.8125,
        "meta_ra_of_asc_node": 6.2508,
        "meta_arg_of_pericenter": 174.902,
        "meta_mean_anomaly": 185.2216,
        "meta_ephemeris_type": 0,
        "meta_classification_type": "U",
        "meta_norad_cat_id": 44819,
        "meta_element_set_no": 999,
        "meta_rev_at_epoch": 32851,
        "meta_bstar": 7.4602284e-05,
        "meta_mean_motion_dot": 5.23e-06,
        "meta_mean_motion_ddot": 0,
        "tle_line1": "1 44819U 19082A   25360.32643038  .00000523  00000+0  74602-4 0  9993",
        "tle_line2": "2 44819  97.8125   6.2508 0002306 174.9020 185.2216 14.80672783328515"
      },
      "geometry": {
        "type": "Point",
        "coordinates": [
          147.76581118201204,
          -77.63991747454743
        ]
      }
    },
    {
      "type": "Feature",
      "properties": {
        "norad_id": 44873,
        "name": "CSG-1",
        "group": "resource",
        "lat": 81.08939715682149,
        "lon": 119.70209164321264,
        "alt_km": 614.0571145064496,
        "timestamp": "2025-12-26T15:29:39.096057+00:00",
        "meta_object_name": "CSG-1",
        "meta_object_id": "2019-092A",
        "meta_epoch": "2025-12-26T07:00:26.027424",
        "meta_mean_motion": 14.8216247,
        "meta_eccentricity": 0.0001452,
        "meta_inclination": 97.8805,
        "meta_ra_of_asc_node": 181.4121,
        "meta_arg_of_pericenter": 85.0491,
        "meta_mean_anomaly": 275.0888,
        "meta_ephemeris_type": 0,
        "meta_classification_type": "U",
        "meta_norad_cat_id": 44873,
        "meta_element_set_no": 999,
        "meta_rev_at_epoch": 32586,
        "meta_bstar": 9.0223518e-05,
        "meta_mean_motion_dot": 6.66e-06,
        "meta_mean_motion_ddot": 0,
        "tle_line1": "1 44873U 19092A   25360.29196791  .00000666  00000+0  90224-4 0  9995",
        "tle_line2": "2 44873  97.8805 181.4121 0001452  85.0491 275.0888 14.82162470325869"
      },
      "geometry": {
        "type": "Point",
        "coordinates": [
          119.70209164321264,
          81.08939715682149
        ]
      }
    }
  ]
}